CCSDS_OMM_VERS = 2.0
CREATION_DATE  = 
ORIGINATOR     = 

OBJECT_NAME    = SL-3 R/B
OBJECT_ID      = 1982-079B
CENTER_NAME    = EARTH
REF_FRAME      = TEME
TIME_SYSTEM    = UTC
MEAN_ELEMENT_THEORY = SGP/SGP4

EPOCH          = 2026-04-03T11:16:14.974464
MEAN_MOTION    = 15.25137970
ECCENTRICITY   = .0025462
INCLINATION    = 81.1476
RA_OF_ASC_NODE = 163.8167
ARG_OF_PERICENTER = 83.5673
MEAN_ANOMALY   = 276.8459

EPHEMERIS_TYPE = 0
CLASSIFICATION_TYPE = U
NORAD_CAT_ID   = 13403
ELEMENT_SET_NO = 999
REV_AT_EPOCH   = 38147
BSTAR          = .38731E-3
MEAN_MOTION_DOT = .9822E-4
MEAN_MOTION_DDOT = 0

CCSDS_OMM_VERS = 2.0
CREATION_DATE  = 
ORIGINATOR     = 

OBJECT_NAME    = SL-14 R/B
OBJECT_ID      = 1982-092B
CENTER_NAME    = EARTH
REF_FRAME      = TEME
TIME_SYSTEM    = UTC
MEAN_ELEMENT_THEORY = SGP/SGP4

EPOCH          = 2026-04-03T13:21:35.665920
MEAN_MOTION    = 14.86690469
ECCENTRICITY   = .0019394
INCLINATION    = 82.5651
RA_OF_ASC_NODE = 118.1350
ARG_OF_PERICENTER = 215.0194
MEAN_ANOMALY   = 259.5108

EPHEMERIS_TYPE = 0
CLASSIFICATION_TYPE = U
NORAD_CAT_ID   = 13553
ELEMENT_SET_NO = 999
REV_AT_EPOCH   = 33262
BSTAR          = .7761E-4
MEAN_MOTION_DOT = .716E-5
MEAN_MOTION_DDOT = 0

CCSDS_OMM_VERS = 2.0
CREATION_DATE  = 
ORIGINATOR     = 

OBJECT_NAME    = SL-3 R/B
OBJECT_ID      = 1983-010B
CENTER_NAME    = EARTH
REF_FRAME      = TEME
TIME_SYSTEM    = UTC
MEAN_ELEMENT_THEORY = SGP/SGP4

EPOCH          = 2026-04-03T09:47:51.709632
MEAN_MOTION    = 15.47213941
ECCENTRICITY   = .0015495
INCLINATION    = 81.1036
RA_OF_ASC_NODE = 331.9260
ARG_OF_PERICENTER = 325.1669
MEAN_ANOMALY   = 34.8560

EPHEMERIS_TYPE = 0
CLASSIFICATION_TYPE = U
NORAD_CAT_ID   = 13819
ELEMENT_SET_NO = 999
REV_AT_EPOCH   = 36176
BSTAR          = .47092E-3
MEAN_MOTION_DOT = .24125E-3
MEAN_MOTION_DDOT = 0

CCSDS_OMM_VERS = 2.0
CREATION_DATE  = 
ORIGINATOR     = 

OBJECT_NAME    = SL-3 R/B
OBJECT_ID      = 1983-075B
CENTER_NAME    = EARTH
REF_FRAME      = TEME
TIME_SYSTEM    = UTC
MEAN_ELEMENT_THEORY = SGP/SGP4

EPOCH          = 2026-04-03T12:42:01.792224
MEAN_MOTION    = 15.39037422
ECCENTRICITY   = .0022765
INCLINATION    = 97.6133
RA_OF_ASC_NODE = 99.0582
ARG_OF_PERICENTER = 137.2462
MEAN_ANOMALY   = 223.0559

EPHEMERIS_TYPE = 0
CLASSIFICATION_TYPE = U
NORAD_CAT_ID   = 14208
ELEMENT_SET_NO = 999
REV_AT_EPOCH   = 33397
BSTAR          = .46049E-3
MEAN_MOTION_DOT = .17894E-3
MEAN_MOTION_DDOT = 0

CCSDS_OMM_VERS = 2.0
CREATION_DATE  = 
ORIGINATOR     = 

OBJECT_NAME    = COSMOS 1536
OBJECT_ID      = 1984-013A
CENTER_NAME    = EARTH
REF_FRAME      = TEME
TIME_SYSTEM    = UTC
MEAN_ELEMENT_THEORY = SGP/SGP4

EPOCH          = 2026-04-03T11:21:45.980640
MEAN_MOTION    = 15.24186980
ECCENTRICITY   = .0013972
INCLINATION    = 82.5419
RA_OF_ASC_NODE = 83.2004
ARG_OF_PERICENTER = 187.2704
MEAN_ANOMALY   = 172.8333

EPHEMERIS_TYPE = 0
CLASSIFICATION_TYPE = U
NORAD_CAT_ID   = 14699
ELEMENT_SET_NO = 999
REV_AT_EPOCH   = 27639
BSTAR          = .46277E-3
MEAN_MOTION_DOT = .11335E-3
MEAN_MOTION_DDOT = 0

CCSDS_OMM_VERS = 2.0
CREATION_DATE  = 
ORIGINATOR     = 

OBJECT_NAME    = SL-14 R/B
OBJECT_ID      = 1984-027B
CENTER_NAME    = EARTH
REF_FRAME      = TEME
TIME_SYSTEM    = UTC
MEAN_ELEMENT_THEORY = SGP/SGP4

EPOCH          = 2026-04-03T09:44:18.839904
MEAN_MOTION    = 14.86005323
ECCENTRICITY   = .001659
INCLINATION    = 82.5426
RA_OF_ASC_NODE = 221.8313
ARG_OF_PERICENTER = 249.9799
MEAN_ANOMALY   = 109.9631

EPHEMERIS_TYPE = 0
CLASSIFICATION_TYPE = U
NORAD_CAT_ID   = 14820
ELEMENT_SET_NO = 999
REV_AT_EPOCH   = 25130
BSTAR          = .97767E-4
MEAN_MOTION_DOT = .88E-5
MEAN_MOTION_DDOT = 0

CCSDS_OMM_VERS = 2.0
CREATION_DATE  = 
ORIGINATOR     = 

OBJECT_NAME    = SL-8 R/B
OBJECT_ID      = 1985-006B
CENTER_NAME    = EARTH
REF_FRAME      = TEME
TIME_SYSTEM    = UTC
MEAN_ELEMENT_THEORY = SGP/SGP4

EPOCH          = 2026-04-03T12:00:10.438848
MEAN_MOTION    = 14.37802212
ECCENTRICITY   = .0017487
INCLINATION    = 74.0460
RA_OF_ASC_NODE = 215.4931
ARG_OF_PERICENTER = 125.8708
MEAN_ANOMALY   = 307.7016

EPHEMERIS_TYPE = 0
CLASSIFICATION_TYPE = U
NORAD_CAT_ID   = 15483
ELEMENT_SET_NO = 999
REV_AT_EPOCH   = 15759
BSTAR          = .16561E-3
MEAN_MOTION_DOT = .474E-5
MEAN_MOTION_DDOT = 0

CCSDS_OMM_VERS = 2.0
CREATION_DATE  = 
ORIGINATOR     = 

OBJECT_NAME    = SL-12 R/B(2)
OBJECT_ID      = 1985-042D
CENTER_NAME    = EARTH
REF_FRAME      = TEME
TIME_SYSTEM    = UTC
MEAN_ELEMENT_THEORY = SGP/SGP4

EPOCH          = 2026-04-03T06:04:45.067296
MEAN_MOTION    = 14.21989969
ECCENTRICITY   = .0032833
INCLINATION    = 71.1098
RA_OF_ASC_NODE = 35.8305
ARG_OF_PERICENTER = 87.3386
MEAN_ANOMALY   = 17.3739

EPHEMERIS_TYPE = 0
CLASSIFICATION_TYPE = U
NORAD_CAT_ID   = 15772
ELEMENT_SET_NO = 999
REV_AT_EPOCH   = 11788
BSTAR          = .12875E-3
MEAN_MOTION_DOT = .239E-5
MEAN_MOTION_DDOT = 0

CCSDS_OMM_VERS = 2.0
CREATION_DATE  = 
ORIGINATOR     = 

OBJECT_NAME    = SL-14 R/B
OBJECT_ID      = 1985-069B
CENTER_NAME    = EARTH
REF_FRAME      = TEME
TIME_SYSTEM    = UTC
MEAN_ELEMENT_THEORY = SGP/SGP4

EPOCH          = 2026-04-03T10:48:29.185056
MEAN_MOTION    = 14.86461682
ECCENTRICITY   = .0020299
INCLINATION    = 82.5305
RA_OF_ASC_NODE = 1.6570
ARG_OF_PERICENTER = 108.7837
MEAN_ANOMALY   = 251.5584

EPHEMERIS_TYPE = 0
CLASSIFICATION_TYPE = U
NORAD_CAT_ID   = 15945
ELEMENT_SET_NO = 999
REV_AT_EPOCH   = 17651
BSTAR          = .86372E-4
MEAN_MOTION_DOT = .79E-5
MEAN_MOTION_DDOT = 0

CCSDS_OMM_VERS = 2.0
CREATION_DATE  = 
ORIGINATOR     = 

OBJECT_NAME    = SL-16 R/B
OBJECT_ID      = 1985-097B
CENTER_NAME    = EARTH
REF_FRAME      = TEME
TIME_SYSTEM    = UTC
MEAN_ELEMENT_THEORY = SGP/SGP4

EPOCH          = 2026-04-03T10:15:41.584032
MEAN_MOTION    = 14.16602794
ECCENTRICITY   = .0009249
INCLINATION    = 71.0008
RA_OF_ASC_NODE = 88.4708
ARG_OF_PERICENTER = 230.3542
MEAN_ANOMALY   = 236.6309

EPHEMERIS_TYPE = 0
CLASSIFICATION_TYPE = U
NORAD_CAT_ID   = 16182
ELEMENT_SET_NO = 999
REV_AT_EPOCH   = 9073
BSTAR          = -.58111E-4
MEAN_MOTION_DOT = -.164E-5
MEAN_MOTION_DDOT = 0

CCSDS_OMM_VERS = 2.0
CREATION_DATE  = 
ORIGINATOR     = 

OBJECT_NAME    = SL-14 R/B
OBJECT_ID      = 1986-006B
CENTER_NAME    = EARTH
REF_FRAME      = TEME
TIME_SYSTEM    = UTC
MEAN_ELEMENT_THEORY = SGP/SGP4

EPOCH          = 2026-04-03T10:06:17.868096
MEAN_MOTION    = 14.86860461
ECCENTRICITY   = .0076236
INCLINATION    = 82.5260
RA_OF_ASC_NODE = 236.4566
ARG_OF_PERICENTER = 189.6315
MEAN_ANOMALY   = 170.3447

EPHEMERIS_TYPE = 0
CLASSIFICATION_TYPE = U
NORAD_CAT_ID   = 16496
ELEMENT_SET_NO = 999
REV_AT_EPOCH   = 15288
BSTAR          = .15744E-3
MEAN_MOTION_DOT = .1507E-4
MEAN_MOTION_DDOT = 0

CCSDS_OMM_VERS = 2.0
CREATION_DATE  = 
ORIGINATOR     = 

OBJECT_NAME    = COSMOS 1743
OBJECT_ID      = 1986-034A
CENTER_NAME    = EARTH
REF_FRAME      = TEME
TIME_SYSTEM    = UTC
MEAN_ELEMENT_THEORY = SGP/SGP4

EPOCH          = 2026-04-03T08:16:40.454688
MEAN_MOTION    = 15.60792471
ECCENTRICITY   = .0005497
INCLINATION    = 82.5319
RA_OF_ASC_NODE = 47.9140
ARG_OF_PERICENTER = 157.7602
MEAN_ANOMALY   = 202.3894

EPHEMERIS_TYPE = 0
CLASSIFICATION_TYPE = U
NORAD_CAT_ID   = 16719
ELEMENT_SET_NO = 999
REV_AT_EPOCH   = 18409
BSTAR          = .78481E-3
MEAN_MOTION_DOT = .65789E-3
MEAN_MOTION_DDOT = 0

